{
  "type": "FeatureCollection",
  "name": "Munich Stadtbezirke (Districts)",
  "description": "Geographic point coordinates for Munich's 25 Stadtbezirke with crime, unemployment and rent data. By Abiola Tijani | 2026",
  "features": [
    {"type": "Feature", "properties": {"district_id": 1, "district_name": "Altstadt-Lehel", "unemployment_rate": 4.2, "crime_rate": 98.2, "avg_rent_eur": 2100, "desirability": "Semi-Desirable"}, "geometry": {"type": "Point", "coordinates": [11.5755, 48.1372]}},
    {"type": "Feature", "properties": {"district_id": 2, "district_name": "Maxvorstadt", "unemployment_rate": 3.8, "crime_rate": 42.1, "avg_rent_eur": 1950, "desirability": "Desirable"}, "geometry": {"type": "Point", "coordinates": [11.5655, 48.1508]}},
    {"type": "Feature", "properties": {"district_id": 3, "district_name": "Schwabing-West", "unemployment_rate": 3.5, "crime_rate": 35.4, "avg_rent_eur": 1850, "desirability": "Desirable"}, "geometry": {"type": "Point", "coordinates": [11.5555, 48.1588]}},
    {"type": "Feature", "properties": {"district_id": 4, "district_name": "Schwabing-Freimann", "unemployment_rate": 3.2, "crime_rate": 28.6, "avg_rent_eur": 1750, "desirability": "Desirable"}, "geometry": {"type": "Point", "coordinates": [11.6055, 48.1750]}},
    {"type": "Feature", "properties": {"district_id": 5, "district_name": "Au-Haidhausen", "unemployment_rate": 4.8, "crime_rate": 52.3, "avg_rent_eur": 1800, "desirability": "Desirable"}, "geometry": {"type": "Point", "coordinates": [11.6055, 48.1272]}},
    {"type": "Feature", "properties": {"district_id": 6, "district_name": "Sendling", "unemployment_rate": 5.2, "crime_rate": 38.7, "avg_rent_eur": 1550, "desirability": "Least Desirable"}, "geometry": {"type": "Point", "coordinates": [11.5455, 48.1172]}},
    {"type": "Feature", "properties": {"district_id": 7, "district_name": "Sendling-Westpark", "unemployment_rate": 4.6, "crime_rate": 31.2, "avg_rent_eur": 1500, "desirability": "Most Desirable"}, "geometry": {"type": "Point", "coordinates": [11.5055, 48.1222]}},
    {"type": "Feature", "properties": {"district_id": 8, "district_name": "Schwanthalerhöhe", "unemployment_rate": 5.8, "crime_rate": 45.6, "avg_rent_eur": 1650, "desirability": "Least Desirable"}, "geometry": {"type": "Point", "coordinates": [11.5355, 48.1322]}},
    {"type": "Feature", "properties": {"district_id": 9, "district_name": "Neuhausen-Nymphenburg", "unemployment_rate": 3.4, "crime_rate": 29.8, "avg_rent_eur": 1900, "desirability": "Desirable"}, "geometry": {"type": "Point", "coordinates": [11.5155, 48.1572]}},
    {"type": "Feature", "properties": {"district_id": 10, "district_name": "Moosach", "unemployment_rate": 5.6, "crime_rate": 41.3, "avg_rent_eur": 1450, "desirability": "Least Desirable"}, "geometry": {"type": "Point", "coordinates": [11.5055, 48.1750]}},
    {"type": "Feature", "properties": {"district_id": 11, "district_name": "Milbertshofen-Am Hart", "unemployment_rate": 6.2, "crime_rate": 48.7, "avg_rent_eur": 1400, "desirability": "Least Desirable"}, "geometry": {"type": "Point", "coordinates": [11.5655, 48.1850]}},
    {"type": "Feature", "properties": {"district_id": 12, "district_name": "Bogenhausen", "unemployment_rate": 2.8, "crime_rate": 22.4, "avg_rent_eur": 2050, "desirability": "Desirable"}, "geometry": {"type": "Point", "coordinates": [11.6255, 48.1472]}},
    {"type": "Feature", "properties": {"district_id": 13, "district_name": "Berg am Laim", "unemployment_rate": 5.9, "crime_rate": 43.2, "avg_rent_eur": 1350, "desirability": "Least Desirable"}, "geometry": {"type": "Point", "coordinates": [11.6355, 48.1272]}},
    {"type": "Feature", "properties": {"district_id": 14, "district_name": "Trudering-Riem", "unemployment_rate": 4.8, "crime_rate": 35.6, "avg_rent_eur": 1300, "desirability": "Least Desirable"}, "geometry": {"type": "Point", "coordinates": [11.6755, 48.1222]}},
    {"type": "Feature", "properties": {"district_id": 15, "district_name": "Ramersdorf-Perlach", "unemployment_rate": 6.4, "crime_rate": 51.8, "avg_rent_eur": 1380, "desirability": "Least Desirable"}, "geometry": {"type": "Point", "coordinates": [11.6155, 48.1072]}},
    {"type": "Feature", "properties": {"district_id": 16, "district_name": "Obergiesing-Fasangarten", "unemployment_rate": 5.1, "crime_rate": 38.4, "avg_rent_eur": 1420, "desirability": "Least Desirable"}, "geometry": {"type": "Point", "coordinates": [11.5855, 48.1022]}},
    {"type": "Feature", "properties": {"district_id": 17, "district_name": "Untergiesing-Harlaching", "unemployment_rate": 3.9, "crime_rate": 27.9, "avg_rent_eur": 1600, "desirability": "Most Desirable"}, "geometry": {"type": "Point", "coordinates": [11.5655, 48.0922]}},
    {"type": "Feature", "properties": {"district_id": 18, "district_name": "Thalkirchen-Obersendling-Forstenried", "unemployment_rate": 3.6, "crime_rate": 25.3, "avg_rent_eur": 1680, "desirability": "Most Desirable"}, "geometry": {"type": "Point", "coordinates": [11.5255, 48.0822]}},
    {"type": "Feature", "properties": {"district_id": 19, "district_name": "Hadern", "unemployment_rate": 4.1, "crime_rate": 28.7, "avg_rent_eur": 1550, "desirability": "Most Desirable"}, "geometry": {"type": "Point", "coordinates": [11.4955, 48.1072]}},
    {"type": "Feature", "properties": {"district_id": 20, "district_name": "Pasing-Obermenzing", "unemployment_rate": 3.7, "crime_rate": 26.4, "avg_rent_eur": 1480, "desirability": "Most Desirable"}, "geometry": {"type": "Point", "coordinates": [11.4655, 48.1422]}},
    {"type": "Feature", "properties": {"district_id": 21, "district_name": "Aubing-Lochhausen-Langwied", "unemployment_rate": 5.3, "crime_rate": 32.1, "avg_rent_eur": 1250, "desirability": "Least Desirable"}, "geometry": {"type": "Point", "coordinates": [11.4355, 48.1372]}},
    {"type": "Feature", "properties": {"district_id": 22, "district_name": "Allach-Untermenzing", "unemployment_rate": 4.2, "crime_rate": 24.8, "avg_rent_eur": 1200, "desirability": "Most Desirable"}, "geometry": {"type": "Point", "coordinates": [11.4355, 48.1572]}},
    {"type": "Feature", "properties": {"district_id": 23, "district_name": "Feldmoching-Hasenbergl", "unemployment_rate": 7.1, "crime_rate": 55.3, "avg_rent_eur": 1180, "desirability": "Least Desirable"}, "geometry": {"type": "Point", "coordinates": [11.5155, 48.1950]}},
    {"type": "Feature", "properties": {"district_id": 24, "district_name": "Laim", "unemployment_rate": 5.4, "crime_rate": 40.2, "avg_rent_eur": 1420, "desirability": "Least Desirable"}, "geometry": {"type": "Point", "coordinates": [11.5155, 48.1422]}},
    {"type": "Feature", "properties": {"district_id": 25, "district_name": "Maxvorstadt-West", "unemployment_rate": 3.9, "crime_rate": 33.6, "avg_rent_eur": 1750, "desirability": "Desirable"}, "geometry": {"type": "Point", "coordinates": [11.4955, 48.1372]}}
  ]
}
